[{"OBJECT_NAME":"GUOWANG GROUP 20 OBJECT B","OBJECT_ID":"2026-047B","EPOCH":"2026-03-19T01:19:13.162080","MEAN_MOTION":14.05761022,"ECCENTRICITY":0.00075469,"INCLINATION":50.0044,"RA_OF_ASC_NODE":32.2582,"ARG_OF_PERICENTER":277.972,"MEAN_ANOMALY":82.0329,"EPHEMERIS_TYPE":0,"CLASSIFICATION_TYPE":"U","NORAD_CAT_ID":68130,"ELEMENT_SET_NO":999,"REV_AT_EPOCH":87,"BSTAR":2.531813e-6,"MEAN_MOTION_DOT":-1.48e-6,"MEAN_MOTION_DDOT":0},{"OBJECT_NAME":"GUOWANG GROUP 20 OBJECT C","OBJECT_ID":"2026-047C","EPOCH":"2026-03-19T14:57:50.348160","MEAN_MOTION":14.05810373,"ECCENTRICITY":0.00081141,"INCLINATION":50.0037,"RA_OF_ASC_NODE":29.9293,"ARG_OF_PERICENTER":287.016,"MEAN_ANOMALY":72.9856,"EPHEMERIS_TYPE":0,"CLASSIFICATION_TYPE":"U","NORAD_CAT_ID":68131,"ELEMENT_SET_NO":999,"REV_AT_EPOCH":96,"BSTAR":2.43655e-6,"MEAN_MOTION_DOT":-1.48e-6,"MEAN_MOTION_DDOT":0},{"OBJECT_NAME":"GUOWANG GROUP 20 OBJECT D","OBJECT_ID":"2026-047D","EPOCH":"2026-03-19T03:00:48.676032","MEAN_MOTION":14.05881519,"ECCENTRICITY":0.0008434,"INCLINATION":50.0078,"RA_OF_ASC_NODE":31.9684,"ARG_OF_PERICENTER":289.4802,"MEAN_ANOMALY":70.5192,"EPHEMERIS_TYPE":0,"CLASSIFICATION_TYPE":"U","NORAD_CAT_ID":68132,"ELEMENT_SET_NO":999,"REV_AT_EPOCH":88,"BSTAR":3.692038e-6,"MEAN_MOTION_DOT":-1.46e-6,"MEAN_MOTION_DDOT":0},{"OBJECT_NAME":"GUOWANG GROUP 20 OBJECT E","OBJECT_ID":"2026-047E","EPOCH":"2026-03-17T01:32:12.575616","MEAN_MOTION":14.05931996,"ECCENTRICITY":0.00068308,"INCLINATION":50.0041,"RA_OF_ASC_NODE":40.3867,"ARG_OF_PERICENTER":274.9069,"MEAN_ANOMALY":85.1056,"EPHEMERIS_TYPE":0,"CLASSIFICATION_TYPE":"U","NORAD_CAT_ID":68133,"ELEMENT_SET_NO":999,"REV_AT_EPOCH":60,"BSTAR":4.63008e-6,"MEAN_MOTION_DOT":-1.45e-6,"MEAN_MOTION_DDOT":0},{"OBJECT_NAME":"GUOWANG GROUP 20 OBJECT F","OBJECT_ID":"2026-047F","EPOCH":"2026-03-19T23:27:41.427648","MEAN_MOTION":14.06079851,"ECCENTRICITY":0.0006391,"INCLINATION":50.0091,"RA_OF_ASC_NODE":28.4795,"ARG_OF_PERICENTER":289.3722,"MEAN_ANOMALY":70.6492,"EPHEMERIS_TYPE":0,"CLASSIFICATION_TYPE":"U","NORAD_CAT_ID":68134,"ELEMENT_SET_NO":999,"REV_AT_EPOCH":100,"BSTAR":2.0813e-6,"MEAN_MOTION_DOT":-1.49e-6,"MEAN_MOTION_DDOT":0},{"OBJECT_NAME":"GUOWANG GROUP 20 OBJECT G","OBJECT_ID":"2026-047G","EPOCH":"2026-03-19T04:42:06.147936","MEAN_MOTION":14.06047332,"ECCENTRICITY":0.00073865,"INCLINATION":50.0116,"RA_OF_ASC_NODE":31.6805,"ARG_OF_PERICENTER":291.8734,"MEAN_ANOMALY":68.1386,"EPHEMERIS_TYPE":0,"CLASSIFICATION_TYPE":"U","NORAD_CAT_ID":68135,"ELEMENT_SET_NO":999,"REV_AT_EPOCH":90,"BSTAR":4.87513e-6,"MEAN_MOTION_DOT":-1.44e-6,"MEAN_MOTION_DDOT":0},{"OBJECT_NAME":"GUOWANG GROUP 20 OBJECT H","OBJECT_ID":"2026-047H","EPOCH":"2026-03-18T23:34:26.844960","MEAN_MOTION":14.06144171,"ECCENTRICITY":0.00075099,"INCLINATION":50.0089,"RA_OF_ASC_NODE":32.5476,"ARG_OF_PERICENTER":297.2561,"MEAN_ANOMALY":62.758,"EPHEMERIS_TYPE":0,"CLASSIFICATION_TYPE":"U","NORAD_CAT_ID":68136,"ELEMENT_SET_NO":999,"REV_AT_EPOCH":86,"BSTAR":4.138608e-6,"MEAN_MOTION_DOT":-1.46e-6,"MEAN_MOTION_DDOT":0},{"OBJECT_NAME":"GUOWANG GROUP 20 OBJECT J","OBJECT_ID":"2026-047J","EPOCH":"2026-03-18T23:33:39.242880","MEAN_MOTION":14.06269806,"ECCENTRICITY":0.00059129,"INCLINATION":50.0089,"RA_OF_ASC_NODE":32.5436,"ARG_OF_PERICENTER":296.0035,"MEAN_ANOMALY":64.0262,"EPHEMERIS_TYPE":0,"CLASSIFICATION_TYPE":"U","NORAD_CAT_ID":68137,"ELEMENT_SET_NO":999,"REV_AT_EPOCH":87,"BSTAR":4.840452e-6,"MEAN_MOTION_DOT":-1.44e-6,"MEAN_MOTION_DDOT":0},{"OBJECT_NAME":"CZ-8A R/B","OBJECT_ID":"2026-047K","EPOCH":"2026-03-20T03:49:31.179360","MEAN_MOTION":14.12228617,"ECCENTRICITY":0.0044747,"INCLINATION":49.9541,"RA_OF_ASC_NODE":27.375,"ARG_OF_PERICENTER":174.3761,"MEAN_ANOMALY":185.7657,"EPHEMERIS_TYPE":0,"CLASSIFICATION_TYPE":"U","NORAD_CAT_ID":68138,"ELEMENT_SET_NO":999,"REV_AT_EPOCH":103,"BSTAR":3.6056e-5,"MEAN_MOTION_DOT":-8.7e-7,"MEAN_MOTION_DDOT":0},{"OBJECT_NAME":"SHIYAN-30 03","OBJECT_ID":"2026-048A","EPOCH":"2026-03-20T03:30:31.246272","MEAN_MOTION":14.91679722,"ECCENTRICITY":0.0003981,"INCLINATION":34.9999,"RA_OF_ASC_NODE":81.3772,"ARG_OF_PERICENTER":293.2303,"MEAN_ANOMALY":66.7982,"EPHEMERIS_TYPE":0,"CLASSIFICATION_TYPE":"U","NORAD_CAT_ID":68139,"ELEMENT_SET_NO":999,"REV_AT_EPOCH":106,"BSTAR":0.00023065,"MEAN_MOTION_DOT":2.337e-5,"MEAN_MOTION_DDOT":0},{"OBJECT_NAME":"SHIYAN-30 04","OBJECT_ID":"2026-048B","EPOCH":"2026-03-20T03:31:38.025696","MEAN_MOTION":14.9169009,"ECCENTRICITY":0.0002487,"INCLINATION":34.9914,"RA_OF_ASC_NODE":81.3847,"ARG_OF_PERICENTER":295.7799,"MEAN_ANOMALY":64.2649,"EPHEMERIS_TYPE":0,"CLASSIFICATION_TYPE":"U","NORAD_CAT_ID":68140,"ELEMENT_SET_NO":999,"REV_AT_EPOCH":106,"BSTAR":0.00022101,"MEAN_MOTION_DOT":2.239e-5,"MEAN_MOTION_DDOT":0},{"OBJECT_NAME":"CZ-2D R/B","OBJECT_ID":"2026-048C","EPOCH":"2026-03-20T04:44:35.520576","MEAN_MOTION":14.95532649,"ECCENTRICITY":0.0015016,"INCLINATION":35.1295,"RA_OF_ASC_NODE":81.0842,"ARG_OF_PERICENTER":56.3124,"MEAN_ANOMALY":303.9014,"EPHEMERIS_TYPE":0,"CLASSIFICATION_TYPE":"U","NORAD_CAT_ID":68141,"ELEMENT_SET_NO":999,"REV_AT_EPOCH":107,"BSTAR":0.00013271,"MEAN_MOTION_DOT":1.47e-5,"MEAN_MOTION_DDOT":0},{"OBJECT_NAME":"STARLINK-36604","OBJECT_ID":"2026-049A","EPOCH":"2026-03-19T13:52:52.185792","MEAN_MOTION":16.01563866,"ECCENTRICITY":5.554e-5,"INCLINATION":97.2797,"RA_OF_ASC_NODE":98.1391,"ARG_OF_PERICENTER":65.4234,"MEAN_ANOMALY":294.7104,"EPHEMERIS_TYPE":0,"CLASSIFICATION_TYPE":"U","NORAD_CAT_ID":68142,"ELEMENT_SET_NO":999,"REV_AT_EPOCH":96,"BSTAR":-0.0010855232,"MEAN_MOTION_DOT":-0.00601426,"MEAN_MOTION_DDOT":0.00012953804},{"OBJECT_NAME":"STARLINK-36995","OBJECT_ID":"2026-049B","EPOCH":"2026-03-19T06:22:43.389408","MEAN_MOTION":16.02629136,"ECCENTRICITY":9.59e-5,"INCLINATION":97.28,"RA_OF_ASC_NODE":97.7985,"ARG_OF_PERICENTER":13.3742,"MEAN_ANOMALY":346.7563,"EPHEMERIS_TYPE":0,"CLASSIFICATION_TYPE":"U","NORAD_CAT_ID":68143,"ELEMENT_SET_NO":999,"REV_AT_EPOCH":91,"BSTAR":-0.00090105,"MEAN_MOTION_DOT":-0.00531426,"MEAN_MOTION_DDOT":0.00010413},{"OBJECT_NAME":"STARLINK-37020","OBJECT_ID":"2026-049C","EPOCH":"2026-03-19T12:20:37.301568","MEAN_MOTION":16.04472428,"ECCENTRICITY":4.674e-5,"INCLINATION":97.2794,"RA_OF_ASC_NODE":98.0724,"ARG_OF_PERICENTER":166.1555,"MEAN_ANOMALY":193.9739,"EPHEMERIS_TYPE":0,"CLASSIFICATION_TYPE":"U","NORAD_CAT_ID":68144,"ELEMENT_SET_NO":999,"REV_AT_EPOCH":95,"BSTAR":0.0015013758,"MEAN_MOTION_DOT":0.00978873,"MEAN_MOTION_DDOT":0.00050884471},{"OBJECT_NAME":"STARLINK-36244","OBJECT_ID":"2026-049D","EPOCH":"2026-03-19T00:20:18.810240","MEAN_MOTION":16.04211622,"ECCENTRICITY":3.95e-5,"INCLINATION":97.2798,"RA_OF_ASC_NODE":97.5283,"ARG_OF_PERICENTER":95.7237,"MEAN_ANOMALY":264.4089,"EPHEMERIS_TYPE":0,"CLASSIFICATION_TYPE":"U","NORAD_CAT_ID":68145,"ELEMENT_SET_NO":999,"REV_AT_EPOCH":87,"BSTAR":-0.00062437,"MEAN_MOTION_DOT":-0.00404794,"MEAN_MOTION_DDOT":6.3915e-5}]
